start=new Date('2022-02-03T00:00:00.000Z').valueOf();
sats=[{"OBJECT_TYPE":"PAYLOAD","SEMIMAJOR_AXIS":"6925.335","INCLINATION":"53.0525","FILE":"3290513","TLE_LINE1":"1 48029U 21024BE  22033.90976063 -.00002003  00000-0 -11557-3 0  9991","DECAY_DATE":null,"RA_OF_ASC_NODE":"206.4476","REV_AT_EPOCH":"4918","MEAN_ELEMENT_THEORY":"SGP4","GP_ID":"195191531","NORAD_CAT_ID":"48029","EPHEMERIS_TYPE":"0","APOAPSIS":"548.125","ELEMENT_SET_NO":"999","PERIOD":"95.592","REF_FRAME":"TEME","CLASSIFICATION_TYPE":"U","SITE":"AFETR","PERIAPSIS":"546.274","EPOCH":"2022-02-02T21:50:03.318432","TIME_SYSTEM":"UTC","MEAN_ANOMALY":"289.6182","MEAN_MOTION_DOT":"-0.00002003","BSTAR":"-0.00011557000000","OBJECT_ID":"2021-024BE","OBJECT_NAME":"STARLINK-2299","CENTER_NAME":"EARTH","LAUNCH_DATE":"2021-03-24","ARG_OF_PERICENTER":"70.4951","TLE_LINE2":"2 48029  53.0525 206.4476 0001336  70.4951 289.6182 15.06404521 49189","RCS_SIZE":"LARGE","ECCENTRICITY":"0.00013360","MEAN_MOTION":"15.06404521","COUNTRY_CODE":"US","MEAN_MOTION_DDOT":"0.0000000000000"},{"OBJECT_TYPE":"PAYLOAD","SEMIMAJOR_AXIS":"6925.359","INCLINATION":"53.0541","DECAY_DATE":null,"TLE_LINE1":"1 48030U 21024BF  22033.87060793  .00001465  00000-0  11723-3 0  9997","FILE":"3290513","REV_AT_EPOCH":"4904","RA_OF_ASC_NODE":"211.5975","GP_ID":"195191781","MEAN_ELEMENT_THEORY":"SGP4","EPHEMERIS_TYPE":"0","NORAD_CAT_ID":"48030","REF_FRAME":"TEME","PERIOD":"95.592","ELEMENT_SET_NO":"999","APOAPSIS":"548.493","CLASSIFICATION_TYPE":"U","PERIAPSIS":"545.954","SITE":"AFETR","OBJECT_NAME":"STARLINK-2268","OBJECT_ID":"2021-024BF","MEAN_MOTION_DOT":"0.00001465","BSTAR":"0.00011723000000","MEAN_ANOMALY":"283.3343","EPOCH":"2022-02-02T20:53:40.525152","TIME_SYSTEM":"UTC","CENTER_NAME":"EARTH","ARG_OF_PERICENTER":"76.7851","LAUNCH_DATE":"2021-03-24","RCS_SIZE":"LARGE","TLE_LINE2":"2 48030  53.0541 211.5975 0001833  76.7851 283.3343 15.06396623 49048","MEAN_MOTION_DDOT":"0.0000000000000","COUNTRY_CODE":"US","MEAN_MOTION":"15.06396623","ECCENTRICITY":"0.00018330"},{"EPOCH":"2022-02-02T22:00:00.999936","TIME_SYSTEM":"UTC","OBJECT_NAME":"STARLINK-2267","OBJECT_ID":"2021-024BG","MEAN_MOTION_DOT":"0.00000972","MEAN_ANOMALY":"351.7367","BSTAR":"0.00008423000000","SITE":"AFETR","PERIAPSIS":"546.181","CLASSIFICATION_TYPE":"U","ELEMENT_SET_NO":"999","APOAPSIS":"548.408","REF_FRAME":"TEME","PERIOD":"95.594","MEAN_MOTION":"15.06373464","ECCENTRICITY":"0.00016080","MEAN_MOTION_DDOT":"0.0000000000000","COUNTRY_CODE":"US","RCS_SIZE":"LARGE","TLE_LINE2":"2 48031  53.0508  96.4033 0001608  50.8680 351.7367 15.06373464  3606","ARG_OF_PERICENTER":"50.8680","LAUNCH_DATE":"2021-03-24","CENTER_NAME":"EARTH","FILE":"3290513","DECAY_DATE":null,"TLE_LINE1":"1 48031U 21024BG  22033.91667824  .00000972  00000-0  84230-4 0  9997","INCLINATION":"53.0508","SEMIMAJOR_AXIS":"6925.430","OBJECT_TYPE":"PAYLOAD","NORAD_CAT_ID":"48031","EPHEMERIS_TYPE":"0","MEAN_ELEMENT_THEORY":"SGP4","GP_ID":"195193032","RA_OF_ASC_NODE":"96.4033","REV_AT_EPOCH":"360"},{"PERIAPSIS":"545.538","SITE":"AFETR","OBJECT_ID":"2021-024BJ","OBJECT_NAME":"STARLINK-2286","MEAN_MOTION_DOT":"0.00000445","BSTAR":"0.00004879500000","MEAN_ANOMALY":"282.5946","EPOCH":"2022-02-02T19:58:36.936480","TIME_SYSTEM":"UTC","REF_FRAME":"TEME","PERIOD":"95.592","ELEMENT_SET_NO":"999","APOAPSIS":"548.878","CLASSIFICATION_TYPE":"U","RCS_SIZE":"LARGE","TLE_LINE2":"2 48033  53.0606 206.7024 0002411  77.5313 282.5946 15.06401812 49170","MEAN_MOTION_DDOT":"0.0000000000000","COUNTRY_CODE":"US","MEAN_MOTION":"15.06401812","ECCENTRICITY":"0.00024110","CENTER_NAME":"EARTH","ARG_OF_PERICENTER":"77.5313","LAUNCH_DATE":"2021-03-24","DECAY_DATE":null,"TLE_LINE1":"1 48033U 21024BJ  22033.83237195  .00000445  00000-0  48795-4 0  9995","FILE":"3290513","OBJECT_TYPE":"PAYLOAD","INCLINATION":"53.0606","SEMIMAJOR_AXIS":"6925.343","EPHEMERIS_TYPE":"0","NORAD_CAT_ID":"48033","REV_AT_EPOCH":"4917","RA_OF_ASC_NODE":"206.7024","GP_ID":"195192783","MEAN_ELEMENT_THEORY":"SGP4"},{"NORAD_CAT_ID":"48034","EPHEMERIS_TYPE":"0","RA_OF_ASC_NODE":"207.3011","REV_AT_EPOCH":"4915","MEAN_ELEMENT_THEORY":"SGP4","GP_ID":"195192031","FILE":"3290513","DECAY_DATE":null,"TLE_LINE1":"1 48034U 21024BK  22033.71811192  .00002708  00000-0  20066-3 0  9992","OBJECT_TYPE":"PAYLOAD","INCLINATION":"53.0524","SEMIMAJOR_AXIS":"6925.367","TLE_LINE2":"2 48034  53.0524 207.3011 0001657  68.5954 291.5212 15.06393913 49151","RCS_SIZE":"LARGE","MEAN_MOTION":"15.06393913","ECCENTRICITY":"0.00016570","MEAN_MOTION_DDOT":"0.0000000000000","COUNTRY_CODE":"US","CENTER_NAME":"EARTH","ARG_OF_PERICENTER":"68.5954","LAUNCH_DATE":"2021-03-24","SITE":"AFETR","PERIAPSIS":"546.085","EPOCH":"2022-02-02T17:14:04.869888","TIME_SYSTEM":"UTC","OBJECT_NAME":"STARLINK-2288","OBJECT_ID":"2021-024BK","MEAN_MOTION_DOT":"0.00002708","BSTAR":"0.00020066000000","MEAN_ANOMALY":"291.5212","ELEMENT_SET_NO":"999","APOAPSIS":"548.380","REF_FRAME":"TEME","PERIOD":"95.593","CLASSIFICATION_TYPE":"U"},{"CENTER_NAME":"EARTH","LAUNCH_DATE":"2021-03-24","ARG_OF_PERICENTER":"78.5818","RCS_SIZE":"LARGE","TLE_LINE2":"2 48036  53.0541 207.2664 0001712  78.5818 281.5363 15.06407345 49158","ECCENTRICITY":"0.00017120","MEAN_MOTION":"15.06407345","COUNTRY_CODE":"US","MEAN_MOTION_DDOT":"0.0000000000000","APOAPSIS":"548.377","ELEMENT_SET_NO":"999","PERIOD":"95.592","REF_FRAME":"TEME","CLASSIFICATION_TYPE":"U","SITE":"AFETR","PERIAPSIS":"546.005","EPOCH":"2022-02-02T17:24:40.679712","TIME_SYSTEM":"UTC","MEAN_MOTION_DOT":"0.00000698","BSTAR":"0.00006572400000","MEAN_ANOMALY":"281.5363","OBJECT_NAME":"STARLINK-2295","OBJECT_ID":"2021-024BM","RA_OF_ASC_NODE":"207.2664","REV_AT_EPOCH":"4915","MEAN_ELEMENT_THEORY":"SGP4","GP_ID":"195192281","NORAD_CAT_ID":"48036","EPHEMERIS_TYPE":"0","OBJECT_TYPE":"PAYLOAD","SEMIMAJOR_AXIS":"6925.326","INCLINATION":"53.0541","FILE":"3290513","TLE_LINE1":"1 48036U 21024BM  22033.72547083  .00000698  00000-0  65724-4 0  9997","DECAY_DATE":null},{"CENTER_NAME":"EARTH","ARG_OF_PERICENTER":"80.2265","LAUNCH_DATE":"2021-04-07","TLE_LINE2":"2 48092  53.0580 331.7578 0001523  80.2265 279.8896 15.06395681 48009","RCS_SIZE":"LARGE","MEAN_MOTION":"15.06395681","ECCENTRICITY":"0.00015230","MEAN_MOTION_DDOT":"0.0000000000000","COUNTRY_CODE":"US","ELEMENT_SET_NO":"999","APOAPSIS":"548.282","REF_FRAME":"TEME","PERIOD":"95.592","CLASSIFICATION_TYPE":"U","SITE":"AFETR","PERIAPSIS":"546.172","EPOCH":"2022-02-02T20:04:32.666016","TIME_SYSTEM":"UTC","OBJECT_ID":"2021-027A","OBJECT_NAME":"STARLINK-2048","MEAN_MOTION_DOT":"0.00001370","MEAN_ANOMALY":"279.8896","BSTAR":"0.00011084000000","RA_OF_ASC_NODE":"331.7578","REV_AT_EPOCH":"4800","MEAN_ELEMENT_THEORY":"SGP4","GP_ID":"195193289","NORAD_CAT_ID":"48092","EPHEMERIS_TYPE":"0","OBJECT_TYPE":"PAYLOAD","SEMIMAJOR_AXIS":"6925.362","INCLINATION":"53.0580","FILE":"3290513","DECAY_DATE":null,"TLE_LINE1":"1 48092U 21027A   22033.83648919  .00001370  00000-0  11084-3 0  9991"},{"EPHEMERIS_TYPE":"0","NORAD_CAT_ID":"48093","GP_ID":"195191538","MEAN_ELEMENT_THEORY":"SGP4","REV_AT_EPOCH":"4708","RA_OF_ASC_NODE":"37.2046","DECAY_DATE":null,"TLE_LINE1":"1 48093U 21027B   22033.74019383  .00001476  00000-0  11793-3 0  9993","FILE":"3290513","INCLINATION":"53.0559","SEMIMAJOR_AXIS":"6925.347","OBJECT_TYPE":"PAYLOAD","MEAN_MOTION_DDOT":"0.0000000000000","COUNTRY_CODE":"US","MEAN_MOTION":"15.06400437","ECCENTRICITY":"0.00014900","RCS_SIZE":"LARGE","TLE_LINE2":"2 48093  53.0559  37.2046 0001490  79.1151 281.0005 15.06400437 47088","ARG_OF_PERICENTER":"79.1151","LAUNCH_DATE":"2021-04-07","CENTER_NAME":"EARTH","OBJECT_NAME":"STARLINK-2404","OBJECT_ID":"2021-027B","MEAN_ANOMALY":"281.0005","MEAN_MOTION_DOT":"0.00001476","BSTAR":"0.00011793000000","EPOCH":"2022-02-02T17:45:52.746912","TIME_SYSTEM":"UTC","PERIAPSIS":"546.180","SITE":"AFETR","CLASSIFICATION_TYPE":"U","REF_FRAME":"TEME","PERIOD":"95.592","ELEMENT_SET_NO":"999","APOAPSIS":"548.244"},{"CLASSIFICATION_TYPE":"U","APOAPSIS":"548.129","ELEMENT_SET_NO":"999","PERIOD":"95.591","REF_FRAME":"TEME","TIME_SYSTEM":"UTC","EPOCH":"2022-02-02T12:16:51.578112","MEAN_MOTION_DOT":"0.00003118","BSTAR":"0.00022803000000","MEAN_ANOMALY":"290.5596","OBJECT_ID":"2021-027C","OBJECT_NAME":"STARLINK-2412","SITE":"AFETR","PERIAPSIS":"546.217","LAUNCH_DATE":"2021-04-07","ARG_OF_PERICENTER":"69.5541","CENTER_NAME":"EARTH","ECCENTRICITY":"0.00013810","MEAN_MOTION":"15.06413265","COUNTRY_CODE":"US","MEAN_MOTION_DDOT":"0.0000000000000","RCS_SIZE":"LARGE","TLE_LINE2":"2 48094  53.0543  48.2266 0001381  69.5541 290.5596 15.06413265 46917","SEMIMAJOR_AXIS":"6925.308","INCLINATION":"53.0543","OBJECT_TYPE":"PAYLOAD","FILE":"3290262","TLE_LINE1":"1 48094U 21027C   22033.51170808  .00003118  00000-0  22803-3 0  9998","DECAY_DATE":null,"MEAN_ELEMENT_THEORY":"SGP4","GP_ID":"195162348","RA_OF_ASC_NODE":"48.2266","REV_AT_EPOCH":"4691","NORAD_CAT_ID":"48094","EPHEMERIS_TYPE":"0"},{"OBJECT_TYPE":"PAYLOAD","INCLINATION":"53.0550","SEMIMAJOR_AXIS":"6925.372","FILE":"3290262","TLE_LINE1":"1 48095U 21027D   22033.51906180  .00000420  00000-0  47131-4 0  9994","DECAY_DATE":null,"RA_OF_ASC_NODE":"48.2023","REV_AT_EPOCH":"4692","MEAN_ELEMENT_THEORY":"SGP4","GP_ID":"195163099","EPHEMERIS_TYPE":"0","NORAD_CAT_ID":"48095","APOAPSIS":"548.235","ELEMENT_SET_NO":"999","PERIOD":"95.593","REF_FRAME":"TEME","CLASSIFICATION_TYPE":"U","SITE":"AFETR","PERIAPSIS":"546.238","EPOCH":"2022-02-02T12:27:26.939520","TIME_SYSTEM":"UTC","MEAN_ANOMALY":"291.7261","MEAN_MOTION_DOT":"0.00000420","BSTAR":"0.00004713100000","OBJECT_ID":"2021-027D","OBJECT_NAME":"STARLINK-2414","CENTER_NAME":"EARTH","LAUNCH_DATE":"2021-04-07","ARG_OF_PERICENTER":"68.3882","TLE_LINE2":"2 48095  53.0550  48.2023 0001442  68.3882 291.7261 15.06392448 46922","RCS_SIZE":"LARGE","ECCENTRICITY":"0.00014420","MEAN_MOTION":"15.06392448","COUNTRY_CODE":"US","MEAN_MOTION_DDOT":"0.0000000000000"}];
